NORAD_CAT_ID,OBJECT_NAME,OBJECT_TYPE,EPOCH,MEAN_MOTION,ECCENTRICITY,INCLINATION,RA_OF_ASC_NODE,ARG_OF_PERICENTER,MEAN_ANOMALY,BSTAR,MEAN_MOTION_DOT,MEAN_MOTION_DDOT,TLE_LINE0,TLE_LINE1,TLE_LINE2,SEMIMAJOR_AXIS,PERIOD,APOGEE,PERIGEE,DECAYED
53977.0,STARLINK-5094,PAYLOAD,2024-04-12 09:26:42,15.08832221,0.0001334,53.2173,105.0267,90.0573,270.0572,-5.5965e-05,-1.178e-05,0.0,0 STARLINK-5094,1 53977U 22125P   24103.39354986 -.00001178  00000-0 -55965-4 0  9993,2 53977  53.2173 105.0267 0001334  90.0573 270.0572 15.08832221 84344,6917.904,95.438,540.692,538.846,0.0
53977.0,STARLINK-5094,PAYLOAD,2024-04-13 09:17:30,15.08832112,0.0001473,53.2173,100.5629,68.8354,291.2795,-1.9509e-05,-5.98e-06,0.0,0 STARLINK-5094,1 53977U 22125P   24104.38715486 -.00000598  00000-0 -19509-4 0  9998,2 53977  53.2173 100.5629 0001473  68.8354 291.2795 15.08832112 84420,6917.904,95.438,540.789,538.75,0.0
53977.0,STARLINK-5094,PAYLOAD,2024-04-14 04:22:04,15.08907802,0.0001317,53.2167,96.9975,67.459,292.6542,-0.0009588,-0.00015543,0.0,0 STARLINK-5094,1 53977U 22125P   24105.18199926 -.00015543  00000-0 -95880-3 0  9993,2 53977  53.2167  96.9975 0001317  67.4590 292.6542 15.08907802 84614,6917.673,95.433,540.449,538.627,0.0
53977.0,STARLINK-5094,PAYLOAD,2024-04-14 09:08:16,15.08837057,0.0001319,53.2166,96.1045,83.2501,276.8642,0.00022978,3.371e-05,0.0,0 STARLINK-5094,1 53977U 22125P   24105.38074596  .00003371  00000-0  22978-3 0  9992,2 53977  53.2166  96.1045 0001319  83.2501 276.8642 15.08837057 84645,6917.889,95.438,540.667,538.842,0.0
53977.0,STARLINK-5094,PAYLOAD,2024-04-15 08:59:03,15.08845651,0.0001326,53.2158,91.6442,94.0526,266.0618,0.00024422,3.602e-05,0.0,0 STARLINK-5094,1 53977U 22125P   24106.37434845  .00003602  00000-0  24422-3 0  9992,2 53977  53.2158  91.6442 0001326  94.0526 266.0618 15.08845651 84724,6917.863,95.437,540.645,538.811,0.0
53977.0,STARLINK-5094,PAYLOAD,2024-04-16 04:03:41,15.08842384,0.0001461,53.2162,88.0742,103.6482,256.4673,6.0694e-05,6.78e-06,0.0,0 STARLINK-5094,1 53977U 22125P   24107.16922856  .00000678  00000-0  60694-4 0  9996,2 53977  53.2162  88.0742 0001461 103.6482 256.4673 15.08842384 84915,6917.873,95.437,540.749,538.727,0.0
53977.0,STARLINK-5094,PAYLOAD,2024-04-16 05:39:04,15.08842713,0.000138,53.2158,87.7805,97.7412,262.3737,4.6627e-05,4.54e-06,0.0,0 STARLINK-5094,1 53977U 22125P   24107.23546857  .00000454  00000-0  46627-4 0  9999,2 53977  53.2158  87.7805 0001380  97.7412 262.3737 15.08842713 84858,6917.872,95.437,540.692,538.782,0.0
53977.0,STARLINK-5094,PAYLOAD,2024-04-16 15:11:22,15.08856055,0.0001423,53.2182,85.9966,95.7238,264.3917,0.00011542,1.55e-05,0.0,0 STARLINK-5094,1 53977U 22125P   24107.63289896  .00001550  00000-0  11542-3 0  9995,2 53977  53.2182  85.9966 0001423  95.7238 264.3917 15.08856055 84985,6917.831,95.437,540.681,538.712,0.0
53977.0,STARLINK-5094,PAYLOAD,2024-04-17 03:54:28,15.08839723,0.0001855,53.2183,83.621,109.5146,250.6047,5.0685e-05,5.19e-06,0.0,0 STARLINK-5094,1 53977U 22125P   24108.16282905  .00000519  00000-0  50685-4 0  9994,2 53977  53.2183  83.6210 0001855 109.5146 250.6047 15.08839723 85069,6917.881,95.438,541.03,538.463,0.0
53977.0,STARLINK-5094,PAYLOAD,2024-04-17 07:05:14,15.0884316,0.0001619,53.2173,83.0228,94.5866,265.5312,4.8754e-05,4.88e-06,0.0,0 STARLINK-5094,1 53977U 22125P   24108.29530636  .00000488  00000-0  48754-4 0  9994,2 53977  53.2173  83.0228 0001619  94.5866 265.5312 15.08843160 85016,6917.871,95.437,540.856,538.616,0.0
53977.0,STARLINK-5094,PAYLOAD,2024-04-18 03:45:16,15.08826442,0.0001289,53.2161,79.1571,93.5815,266.5325,-6.3375e-05,-1.296e-05,0.0,0 STARLINK-5094,1 53977U 22125P   24109.15643980 -.00001296  00000-0 -63375-4 0  9993,2 53977  53.2161  79.1571 0001289  93.5815 266.5325 15.08826442 85217,6917.922,95.438,540.679,538.895,0.0
53977.0,STARLINK-5094,PAYLOAD,2024-04-18 06:56:02,15.08827266,0.0001563,53.2174,78.5618,95.1998,264.9172,-5.5309e-05,-1.168e-05,0.0,0 STARLINK-5094,1 53977U 22125P   24109.28892173 -.00001168  00000-0 -55309-4 0  9993,2 53977  53.2174  78.5618 0001563  95.1998 264.9172 15.08827266 85162,6917.919,95.438,540.866,538.703,0.0
53977.0,STARLINK-5094,PAYLOAD,2024-04-19 03:36:03,15.08839355,0.000144,53.2162,74.6964,86.0612,274.0544,0.00019353,2.793e-05,0.0,0 STARLINK-5094,1 53977U 22125P   24110.15004132  .00002793  00000-0  19353-3 0  9992,2 53977  53.2162  74.6964 0001440  86.0612 274.0544 15.08839355 85365,6917.882,95.438,540.744,538.751,0.0
53977.0,STARLINK-5094,PAYLOAD,2024-04-19 06:46:49,15.08844878,0.0001448,53.2162,74.1019,110.4744,249.6403,0.00039623,6.024e-05,0.0,0 STARLINK-5094,1 53977U 22125P   24110.28251943  .00006024  00000-0  39623-3 0  9993,2 53977  53.2162  74.1019 0001448 110.4744 249.6403 15.08844878 85310,6917.865,95.437,540.732,538.729,0.0
53977.0,STARLINK-5094,PAYLOAD,2024-04-19 16:19:07,15.08863143,0.0001295,53.2153,72.3166,118.9807,241.1315,0.00080647,0.00012578,0.0,0 STARLINK-5094,1 53977U 22125P   24110.67995237  .00012578  00000-0  80647-3 0  9990,2 53977  53.2153  72.3166 0001295 118.9807 241.1315 15.08863143 85445,6917.81,95.436,540.571,538.779,0.0
53977.0,STARLINK-5094,PAYLOAD,2024-04-20 05:02:12,15.08853867,0.0001551,53.215,69.9398,102.5986,257.518,0.00022872,3.355e-05,0.0,0 STARLINK-5094,1 53977U 22125P   24111.20987255  .00003355  00000-0  22872-3 0  9990,2 53977  53.2150  69.9398 0001551 102.5986 257.5180 15.08853867 85525,6917.838,95.437,540.776,538.63,0.0
53977.0,STARLINK-5094,PAYLOAD,2024-04-20 20:56:04,15.08833388,0.0001564,53.2158,66.9654,86.6351,273.482,0.00018941,2.727e-05,0.0,0 STARLINK-5094,1 53977U 22125P   24111.87227941  .00002727  00000-0  18941-3 0  9996,2 53977  53.2158  66.9654 0001564  86.6351 273.4820 15.08833388 85622,6917.901,95.438,540.848,538.684,0.0
53977.0,STARLINK-5094,PAYLOAD,2024-04-21 03:17:38,15.08794294,0.0001939,53.2158,65.775,70.4619,289.6583,-0.00063127,-0.00010308,0.0,0 STARLINK-5094,1 53977U 22125P   24112.13725130 -.00010308  00000-0 -63127-3 0  9991,2 53977  53.2158  65.7750 0001939  70.4619 289.6583 15.08794294 85661,6918.02,95.44,541.227,538.544,0.0
53977.0,STARLINK-5094,PAYLOAD,2024-04-21 06:28:25,15.08797406,0.0001648,53.2155,65.1778,87.8768,272.2413,-9.5317e-05,-1.803e-05,0.0,0 STARLINK-5094,1 53977U 22125P   24112.26973439 -.00001803  00000-0 -95317-4 0  9999,2 53977  53.2155  65.1778 0001648  87.8768 272.2413 15.08797406 85619,6918.011,95.44,541.016,538.735,0.0
53977.0,STARLINK-5094,PAYLOAD,2024-04-22 01:33:02,15.08869285,0.0001983,53.216,61.6111,57.7081,302.4103,0.002521,0.00040095,0.0,0 STARLINK-5094,1 53977U 22125P   24113.06461779  .00040095  00000-0  25210-2 0  9994,2 53977  53.2160  61.6111 0001983  57.7081 302.4103 15.08869285 85801,6917.791,95.436,541.028,538.284,0.0
53977.0,STARLINK-5094,PAYLOAD,2024-04-23 02:59:12,15.08838745,0.0001616,53.2169,56.8524,109.5372,250.5795,0.0024323,0.00038633,0.0,0 STARLINK-5094,1 53977U 22125P   24114.12444594  .00038633  00000-0  24323-2 0  9997,2 53977  53.2169  56.8524 0001616 109.5372 250.5795 15.08838745 85960,6917.884,95.438,540.867,538.631,0.0
53977.0,STARLINK-5094,PAYLOAD,2024-04-23 20:28:26,15.08850537,0.0002193,53.2183,53.5813,128.4959,231.623,0.002467,0.00039205,0.0,0 STARLINK-5094,1 53977U 22125P   24114.85308838  .00039205  00000-0  24670-2 0  9998,2 53977  53.2183  53.5813 0002193 128.4959 231.6230 15.08850537 86073,6917.848,95.437,541.23,538.196,0.0
53977.0,STARLINK-5094,PAYLOAD,2024-04-24 02:49:59,15.088482,0.0001933,53.2184,52.3943,120.7353,239.3829,0.00065562,0.00010164,0.0,0 STARLINK-5094,1 53977U 22125P   24115.11804641  .00010164  00000-0  65562-3 0  9990,2 53977  53.2184  52.3943 0001933 120.7353 239.3829 15.08848200 86117,6917.855,95.437,541.058,538.383,0.0
53977.0,STARLINK-5094,PAYLOAD,2024-04-24 06:00:45,15.08851856,0.0001761,53.2178,51.7937,114.9033,245.2142,0.00067752,0.00010515,0.0,0 STARLINK-5094,1 53977U 22125P   24115.25052498  .00010515  00000-0  67752-3 0  9993,2 53977  53.2178  51.7937 0001761 114.9033 245.2142 15.08851856 86064,6917.844,95.437,540.927,538.491,0.0
53977.0,STARLINK-5094,PAYLOAD,2024-04-25 01:05:23,15.08843006,0.0001744,53.2183,48.2233,114.3774,245.7401,0.00012499,1.702e-05,0.0,0 STARLINK-5094,1 53977U 22125P   24116.04540511  .00001702  00000-0  12499-3 0  9995,2 53977  53.2183  48.2233 0001744 114.3774 245.7401 15.08843006 86259,6917.871,95.437,540.943,538.53,0.0
53977.0,STARLINK-5094,PAYLOAD,2024-04-26 00:56:11,15.08826874,0.0001577,53.2185,43.7641,110.722,249.3942,-0.00014569,-2.605e-05,0.0,0 STARLINK-5094,1 53977U 22125P   24117.03901861 -.00002605  00000-0 -14569-3 0  9999,2 53977  53.2185  43.7641 0001577 110.7220 249.3942 15.08826874 86405,6917.921,95.438,540.876,538.695,0.0
53977.0,STARLINK-5094,PAYLOAD,2024-04-26 12:03:52,15.08843633,0.0001428,53.2186,41.6874,90.2029,269.9126,2.2057e-06,-2.53e-06,0.0,0 STARLINK-5094,1 53977U 22125P   24117.50269504 -.00000253  00000-0  22057-5 0  9991,2 53977  53.2186  41.6874 0001428  90.2029 269.9126 15.08843633 86476,6917.869,95.437,540.722,538.746,0.0
53977.0,STARLINK-5094,PAYLOAD,2024-04-27 11:54:37,15.0887946,0.0001245,53.2181,37.2287,66.476,293.6362,0.00075932,0.0001183,0.0,0 STARLINK-5094,1 53977U 22125P   24118.49627184  .00011830  00000-0  75932-3 0  9992,2 53977  53.2181  37.2287 0001245  66.4760 293.6362 15.08879460 86624,6917.76,95.435,540.486,538.764,0.0
53977.0,STARLINK-5094,PAYLOAD,2024-04-28 03:48:31,15.08839477,0.000127,53.2173,34.2592,59.1118,300.9999,1.9112e-05,1.6e-07,0.0,0 STARLINK-5094,1 53977U 22125P   24119.15869397  .00000016  00000-0  19112-4 0  9993,2 53977  53.2173  34.2592 0001270  59.1118 300.9999 15.08839477 86728,6917.882,95.438,540.626,538.868,0.0
53977.0,STARLINK-5094,PAYLOAD,2024-04-28 11:45:26,15.08837416,0.0001655,53.2205,32.7673,89.7979,270.3202,-3.8147e-05,-8.95e-06,0.0,0 STARLINK-5094,1 53977U 22125P   24119.48989449 -.00000895  00000-0 -38147-4 0  9996,2 53977  53.2205  32.7673 0001655  89.7979 270.3202 15.08837416 86704,6917.888,95.438,540.898,538.608,0.0
